{
    "links": {
        "self": "http://www.neowsapp.com/rest/v1/neo/3759245?api_key=iIulBulltgU6a56xZRHN4H3l9WmuAYTsLGpBGhQ2"
    },
    "id": "3759245",
    "neo_reference_id": "3759245",
    "name": "(2016 RT17)",
    "designation": "2016 RT17",
    "nasa_jpl_url": "http://ssd.jpl.nasa.gov/sbdb.cgi?sstr=3759245",
    "absolute_magnitude_h": 23.2,
    "estimated_diameter": {
        "kilometers": {
            "estimated_diameter_min": 0.0608912622,
            "estimated_diameter_max": 0.1361570015
        },
        "meters": {
            "estimated_diameter_min": 60.8912622106,
            "estimated_diameter_max": 136.1570015386
        },
        "miles": {
            "estimated_diameter_min": 0.0378360645,
            "estimated_diameter_max": 0.0846040122
        },
        "feet": {
            "estimated_diameter_min": 199.7744887109,
            "estimated_diameter_max": 446.7093369279
        }
    },
    "is_potentially_hazardous_asteroid": false,
    "close_approach_data": [
        {
            "close_approach_date": "2016-08-25",
            "close_approach_date_full": "2016-Aug-25 06:30",
            "epoch_date_close_approach": 1472106600000,
            "relative_velocity": {
                "kilometers_per_second": "9.1535186468",
                "kilometers_per_hour": "32952.6671284842",
                "miles_per_hour": "20475.5058610295"
            },
            "miss_distance": {
                "astronomical": "0.16848039",
                "lunar": "65.53887171",
                "kilometers": "25204307.4807693",
                "miles": "15661230.44764434"
            },
            "orbiting_body": "Earth"
        }
    ],
    "orbital_data": {
        "orbit_id": "4",
        "orbit_determination_date": "2017-04-06 08:24:07",
        "first_observation_date": "2016-09-04",
        "last_observation_date": "2016-09-17",
        "data_arc_in_days": 13,
        "observations_used": 34,
        "orbit_uncertainty": "8",
        "minimum_orbit_intersection": ".167094",
        "jupiter_tisserand_invariant": "4.680",
        "epoch_osculation": "2457638.5",
        "eccentricity": ".1820121366283713",
        "semi_major_axis": "1.404309850145778",
        "inclination": "17.36534503673759",
        "ascending_node_longitude": "324.8807047533822",
        "orbital_period": "607.8449879337825",
        "perihelion_distance": "1.148708413832477",
        "perihelion_argument": "37.25909034644295",
        "aphelion_distance": "1.659911286459079",
        "perihelion_time": "2457658.861355518199",
        "mean_anomaly": "347.9408597059121",
        "mean_motion": ".5922562612940682",
        "equinox": "J2000",
        "orbit_class": {
            "orbit_class_type": "AMO",
            "orbit_class_description": "Near-Earth asteroid orbits similar to that of 1221 Amor",
            "orbit_class_range": "1.017 AU < q (perihelion) < 1.3 AU"
        }
    },
    "is_sentry_object": false
}